{
  "type": "FeatureCollection",
  "features": [
    {
      "type": "Feature",
      "properties": {
        "norad_id": 31646,
        "name": "FENGYUN 1C DEB",
        "group": "fengyun-1c-debris",
        "lat": -55.12724166140603,
        "lon": 177.1193971603597,
        "alt_km": 830.358633345164,
        "timestamp": "2025-12-12T18:57:44.413253+00:00",
        "meta_object_name": "FENGYUN 1C DEB",
        "meta_object_id": "1999-025CBC",
        "meta_epoch": "2025-12-06T20:54:19.845792",
        "meta_mean_motion": 14.14117745,
        "meta_eccentricity": 0.00327131,
        "meta_inclination": 98.6907,
        "meta_ra_of_asc_node": 4.0414,
        "meta_arg_of_pericenter": 230.7291,
        "meta_mean_anomaly": 129.0979,
        "meta_ephemeris_type": 0,
        "meta_classification_type": "U",
        "meta_norad_cat_id": 31646,
        "meta_element_set_no": 999,
        "meta_rev_at_epoch": 63108,
        "meta_bstar": 0.00078502967,
        "meta_mean_motion_dot": 1.459e-05,
        "meta_mean_motion_ddot": 0,
        "tle_line1": "1 31646U 99025CBC 25340.87106303  .00001459  00000+0  78503-3 0  9991",
        "tle_line2": "2 31646  98.6907   4.0414 0032713 230.7291 129.0979 14.14117745631084"
      },
      "geometry": {
        "type": "Point",
        "coordinates": [
          177.1193971603597,
          -55.12724166140603
        ]
      }
    },
    {
      "type": "Feature",
      "properties": {
        "norad_id": 31655,
        "name": "FENGYUN 1C DEB",
        "group": "fengyun-1c-debris",
        "lat": 35.84998916335735,
        "lon": -74.10980478760632,
        "alt_km": 1055.6383044066515,
        "timestamp": "2025-12-12T18:57:44.413264+00:00",
        "meta_object_name": "FENGYUN 1C DEB",
        "meta_object_id": "1999-025CBM",
        "meta_epoch": "2025-12-08T02:11:00.557952",
        "meta_mean_motion": 13.63822611,
        "meta_eccentricity": 0.02885921,
        "meta_inclination": 99.2861,
        "meta_ra_of_asc_node": 288.1866,
        "meta_arg_of_pericenter": 150.074,
        "meta_mean_anomaly": 229.9547,
        "meta_ephemeris_type": 0,
        "meta_classification_type": "U",
        "meta_norad_cat_id": 31655,
        "meta_element_set_no": 999,
        "meta_rev_at_epoch": 59656,
        "meta_bstar": 0.0034168292,
        "meta_mean_motion_dot": 3.556e-05,
        "meta_mean_motion_ddot": 0,
        "tle_line1": "1 31655U 99025CBM 25342.09097868  .00003556  00000+0  34168-2 0  9990",
        "tle_line2": "2 31655  99.2861 288.1866 0288592 150.0740 229.9547 13.63822611596569"
      },
      "geometry": {
        "type": "Point",
        "coordinates": [
          -74.10980478760632,
          35.84998916335735
        ]
      }
    },
    {
      "type": "Feature",
      "properties": {
        "norad_id": 31656,
        "name": "FENGYUN 1C DEB",
        "group": "fengyun-1c-debris",
        "lat": -0.790859841282972,
        "lon": 155.45101639091808,
        "alt_km": 748.5274548535281,
        "timestamp": "2025-12-12T18:57:44.413274+00:00",
        "meta_object_name": "FENGYUN 1C DEB",
        "meta_object_id": "1999-025CBN",
        "meta_epoch": "2025-12-11T22:28:26.947200",
        "meta_mean_motion": 14.46995865,
        "meta_eccentricity": 0.0022796,
        "meta_inclination": 99.1932,
        "meta_ra_of_asc_node": 334.653,
        "meta_arg_of_pericenter": 54.6728,
        "meta_mean_anomaly": 1.3556,
        "meta_ephemeris_type": 0,
        "meta_classification_type": "U",
        "meta_norad_cat_id": 31656,
        "meta_element_set_no": 999,
        "meta_rev_at_epoch": 96444,
        "meta_bstar": 0.0034814,
        "meta_mean_motion_dot": 0.00012674,
        "meta_mean_motion_ddot": 0,
        "tle_line1": "1 31656U 99025CBN 25345.93642300  .00012674  00000+0  34814-2 0  9993",
        "tle_line2": "2 31656  99.1932 334.6530 0022796  54.6728   1.3556 14.46995865964442"
      },
      "geometry": {
        "type": "Point",
        "coordinates": [
          155.45101639091808,
          -0.790859841282972
        ]
      }
    },
    {
      "type": "Feature",
      "properties": {
        "norad_id": 31657,
        "name": "FENGYUN 1C DEB",
        "group": "fengyun-1c-debris",
        "lat": 20.676091070638318,
        "lon": -113.4882834226422,
        "alt_km": 813.4657030530443,
        "timestamp": "2025-12-12T18:57:44.413284+00:00",
        "meta_object_name": "FENGYUN 1C DEB",
        "meta_object_id": "1999-025CBP",
        "meta_epoch": "2025-12-08T23:46:04.581120",
        "meta_mean_motion": 13.96979692,
        "meta_eccentricity": 0.0146321,
        "meta_inclination": 102.2162,
        "meta_ra_of_asc_node": 246.1689,
        "meta_arg_of_pericenter": 62.9314,
        "meta_mean_anomaly": 298.6682,
        "meta_ephemeris_type": 0,
        "meta_classification_type": "U",
        "meta_norad_cat_id": 31657,
        "meta_element_set_no": 999,
        "meta_rev_at_epoch": 62812,
        "meta_bstar": 0.0038883,
        "meta_mean_motion_dot": 5.871e-05,
        "meta_mean_motion_ddot": 0,
        "tle_line1": "1 31657U 99025CBP 25342.99033080  .00005871  00000+0  38883-2 0  9997",
        "tle_line2": "2 31657 102.2162 246.1689 0146321  62.9314 298.6682 13.96979692628127"
      },
      "geometry": {
        "type": "Point",
        "coordinates": [
          -113.4882834226422,
          20.676091070638318
        ]
      }
    },
    {
      "type": "Feature",
      "properties": {
        "norad_id": 31658,
        "name": "FENGYUN 1C DEB",
        "group": "fengyun-1c-debris",
        "lat": -42.650113883660445,
        "lon": -156.53032134756322,
        "alt_km": 748.5218419034536,
        "timestamp": "2025-12-12T18:57:44.413293+00:00",
        "meta_object_name": "FENGYUN 1C DEB",
        "meta_object_id": "1999-025CBQ",
        "meta_epoch": "2025-11-30T13:35:01.131648",
        "meta_mean_motion": 13.98632883,
        "meta_eccentricity": 0.0215722,
        "meta_inclination": 98.1534,
        "meta_ra_of_asc_node": 184.9954,
        "meta_arg_of_pericenter": 356.7033,
        "meta_mean_anomaly": 3.2699,
        "meta_ephemeris_type": 0,
        "meta_classification_type": "U",
        "meta_norad_cat_id": 31658,
        "meta_element_set_no": 999,
        "meta_rev_at_epoch": 69646,
        "meta_bstar": 0.0024889,
        "meta_mean_motion_dot": 4.324e-05,
        "meta_mean_motion_ddot": 0,
        "tle_line1": "1 31658U 99025CBQ 25334.56598532  .00004324  00000+0  24889-2 0  9993",
        "tle_line2": "2 31658  98.1534 184.9954 0215722 356.7033   3.2699 13.98632883696462"
      },
      "geometry": {
        "type": "Point",
        "coordinates": [
          -156.53032134756322,
          -42.650113883660445
        ]
      }
    },
    {
      "type": "Feature",
      "properties": {
        "norad_id": 31660,
        "name": "FENGYUN 1C DEB",
        "group": "fengyun-1c-debris",
        "lat": -17.939220811356826,
        "lon": 165.35793550323,
        "alt_km": 736.6422999847373,
        "timestamp": "2025-12-12T18:57:44.413304+00:00",
        "meta_object_name": "FENGYUN 1C DEB",
        "meta_object_id": "1999-025CBS",
        "meta_epoch": "2025-12-09T17:40:59.203776",
        "meta_mean_motion": 14.27109879,
        "meta_eccentricity": 0.010162,
        "meta_inclination": 98.506,
        "meta_ra_of_asc_node": 345.1652,
        "meta_arg_of_pericenter": 189.4957,
        "meta_mean_anomaly": 170.4306,
        "meta_ephemeris_type": 0,
        "meta_classification_type": "U",
        "meta_norad_cat_id": 31660,
        "meta_element_set_no": 999,
        "meta_rev_at_epoch": 7873,
        "meta_bstar": 0.00095587015,
        "meta_mean_motion_dot": 2.42e-05,
        "meta_mean_motion_ddot": 0,
        "tle_line1": "1 31660U 99025CBS 25343.73679634  .00002420  00000+0  95587-3 0  9997",
        "tle_line2": "2 31660  98.5060 345.1652 0101620 189.4957 170.4306 14.27109879 78739"
      },
      "geometry": {
        "type": "Point",
        "coordinates": [
          165.35793550323,
          -17.939220811356826
        ]
      }
    },
    {
      "type": "Feature",
      "properties": {
        "norad_id": 31661,
        "name": "FENGYUN 1C DEB",
        "group": "fengyun-1c-debris",
        "lat": -76.7925744370958,
        "lon": -155.78243050719144,
        "alt_km": 780.5571158631419,
        "timestamp": "2025-12-12T18:57:44.413314+00:00",
        "meta_object_name": "FENGYUN 1C DEB",
        "meta_object_id": "1999-025CBT",
        "meta_epoch": "2025-12-12T04:24:25.109280",
        "meta_mean_motion": 14.25428683,
        "meta_eccentricity": 0.005844,
        "meta_inclination": 98.86,
        "meta_ra_of_asc_node": 65.2597,
        "meta_arg_of_pericenter": 225.2313,
        "meta_mean_anomaly": 164.1203,
        "meta_ephemeris_type": 0,
        "meta_classification_type": "U",
        "meta_norad_cat_id": 31661,
        "meta_element_set_no": 999,
        "meta_rev_at_epoch": 95705,
        "meta_bstar": 0.0027431498,
        "meta_mean_motion_dot": 6.55e-05,
        "meta_mean_motion_ddot": 0,
        "tle_line1": "1 31661U 99025CBT 25346.18362395  .00006550  00000+0  27431-2 0  9993",
        "tle_line2": "2 31661  98.8600  65.2597 0058440 225.2313 164.1203 14.25428683957059"
      },
      "geometry": {
        "type": "Point",
        "coordinates": [
          -155.78243050719144,
          -76.7925744370958
        ]
      }
    }
  ]
}